[Satellite]
VERSION=1.1
NAME=CAS-2T
NICKNAME=CAS-2T
TLE1=1 41847U 16066G   22342.13743736  .00000899  00000+0  14291-3 0  9995
TLE2=2 41847  98.5312  46.4659 0363411  50.2616 313.0003 14.38940755319320
STATUS=0
